{
    "links": {
        "self": "http://www.neowsapp.com/rest/v1/neo/3748332?api_key=iIulBulltgU6a56xZRHN4H3l9WmuAYTsLGpBGhQ2"
    },
    "id": "3748332",
    "neo_reference_id": "3748332",
    "name": "(2016 FT6)",
    "designation": "2016 FT6",
    "nasa_jpl_url": "http://ssd.jpl.nasa.gov/sbdb.cgi?sstr=3748332",
    "absolute_magnitude_h": 20.0,
    "estimated_diameter": {
        "kilometers": {
            "estimated_diameter_min": 0.2658,
            "estimated_diameter_max": 0.5943468684
        },
        "meters": {
            "estimated_diameter_min": 265.8,
            "estimated_diameter_max": 594.3468684194
        },
        "miles": {
            "estimated_diameter_min": 0.1651604118,
            "estimated_diameter_max": 0.369309908
        },
        "feet": {
            "estimated_diameter_min": 872.047272,
            "estimated_diameter_max": 1949.9569797852
        }
    },
    "is_potentially_hazardous_asteroid": false,
    "close_approach_data": [
        {
            "close_approach_date": "1944-06-11",
            "close_approach_date_full": "1944-Jun-11 01:27",
            "epoch_date_close_approach": -806538780000,
            "relative_velocity": {
                "kilometers_per_second": "39.6938783542",
                "kilometers_per_hour": "142897.9620751416",
                "miles_per_hour": "88791.2364905234"
            },
            "miss_distance": {
                "astronomical": "0.4680386348",
                "lunar": "182.0670289372",
                "kilometers": "70017582.843787876",
                "miles": "43506908.5369736488"
            },
            "orbiting_body": "Earth"
        },
        {
            "close_approach_date": "2016-03-02",
            "close_approach_date_full": "2016-Mar-02 01:37",
            "epoch_date_close_approach": 1456882620000,
            "relative_velocity": {
                "kilometers_per_second": "34.1975069873",
                "kilometers_per_hour": "123111.0251542433",
                "miles_per_hour": "76496.4033798686"
            },
            "miss_distance": {
                "astronomical": "0.2557354696",
                "lunar": "99.4810976744",
                "kilometers": "38257481.535609752",
                "miles": "23772096.6994564976"
            },
            "orbiting_body": "Earth"
        }
    ],
    "orbital_data": {
        "orbit_id": "8",
        "orbit_determination_date": "2017-04-06 08:27:16",
        "first_observation_date": "2016-03-25",
        "last_observation_date": "2016-04-09",
        "data_arc_in_days": 15,
        "observations_used": 52,
        "orbit_uncertainty": "8",
        "minimum_orbit_intersection": ".21111",
        "jupiter_tisserand_invariant": "3.087",
        "epoch_osculation": "2457474.5",
        "eccentricity": ".8479890658436704",
        "semi_major_axis": "2.12934283258316",
        "inclination": "18.464798576393",
        "ascending_node_longitude": "195.1005359164372",
        "orbital_period": "1134.92408391462",
        "perihelion_distance": ".323683393120051",
        "perihelion_argument": "199.9607537475439",
        "aphelion_distance": "3.935002272046268",
        "perihelion_time": "2457409.178404764592",
        "mean_anomaly": "20.72012975849049",
        "mean_motion": ".3172018332347616",
        "equinox": "J2000",
        "orbit_class": {
            "orbit_class_type": "APO",
            "orbit_class_description": "Near-Earth asteroid orbits which cross the Earth’s orbit similar to that of 1862 Apollo",
            "orbit_class_range": "a (semi-major axis) > 1.0 AU; q (perihelion) < 1.017 AU"
        }
    },
    "is_sentry_object": false
}